{
  "type": "FeatureCollection",
  "features": [
    {
      "type": "Feature",
      "properties": {
        "id": 1,
        "name": "坐标点 1"
      },
      "geometry": {
        "type": "Point",
        "coordinates": [
          173.22626961887514,
          -85.52705827069758
        ]
      }
    },
    {
      "type": "Feature",
      "properties": {
        "id": 2,
        "name": "坐标点 2"
      },
      "geometry": {
        "type": "Point",
        "coordinates": [
          1.5190854382899617,
          -85.02732322238117
        ]
      }
    }
  ]
}