{
  "type": "FeatureCollection",
  "features": [
    {
      "type": "Feature",
      "id": 0,
      "geometry": {
        "type": "Polygon",
        "coordinates": [
          [
            [
              149.86810302734375,
              69.79229736328125
            ],
            [
              -107.7012939453125,
              68.5010986328125
            ],
            [
              -106.840576171875,
              31.05810546875
            ],
            [
              -81.0177001953125,
              31.48828125
            ],
            [
              -79.29620361328125,
              27.1846923828125
            ],
            [
              -78.43548583984375,
              25.46307373046875
            ],
            [
              -76.71392822265625,
              23.74151611328125
            ],
            [
              -74.131591796875,
              22.02008056640625
            ],
            [
              -71.97967529296875,
              21.5897216796875
            ],
            [
              -68.1063232421875,
              22.02008056640625
            ],
            [
              -64.6632080078125,
              22.02008056640625
            ],
            [
              -61.22027587890625,
              19.86810302734375
            ],
            [
              -59.9290771484375,
              19.00732421875
            ],
            [
              -59.49871826171875,
              14.7034912109375
            ],
            [
              -60.789794921875,
              -37.37249755859375
            ],
            [
              -71.1190185546875,
              -36.94207763671875
            ],
            [
              -71.54937744140625,
              -60.61309814453125
            ],
            [
              20.5521240234375,
              -61.04339599609375
            ],
            [
              19.6912841796875,
              30.627685546875
            ],
            [
              47.2357177734375,
              29.76690673828125
            ],
            [
              46.8052978515625,
              67.64031982421875
            ],
            [
              149.66632080078125,
              66.77947998046875
            ],
            [
              150.0966796875,
              90.88092041015625
            ],
            [
              149.86810302734375,
              92.172119140625
            ],
            [
              150.29852294921875,
              69.79229736328125
            ],
            [
              149.86810302734375,
              69.79229736328125
            ]
          ]
        ]
      },
      "properties": {
        "FID": 0,
        "Id": 0,
        "area": "BCR"
      }
    }
  ]
}