{"type":"FeatureCollection","features":[{"type":"Feature","id":0,"geometry":{"type":"Polygon","coordinates":[[[-209.70147705078125,46.55169677734375],[-210.13189697265625,46.55169677734375],[-210.99267578125,1.7921142578125],[-206.68878173828125,0.0706787109375],[-204.10650634765625,-3.37237548828125],[-201.5242919921875,-5.093994140625],[-198.0811767578125,-7.24591064453125],[-193.34698486328125,-5.9547119140625],[-191.62548828125,-5.9547119140625],[-189.043212890625,-8.5369873046875],[-187.32171630859375,-10.25848388671875],[-184.7393798828125,-11.11932373046875],[-182.1571044921875,-11.9801025390625],[-180.00518798828125,-11.9801025390625],[-176.56219482421875,-12.8408203125],[-174.4102783203125,-13.27117919921875],[-171.3975830078125,-14.13189697265625],[-173.54949951171875,-16.28387451171875],[-173.54949951171875,-19.7269287109375],[-176.13177490234375,-22.739501953125],[-175.70147705078125,-25.752197265625],[-174.8406982421875,-27.04339599609375],[-176.99261474609375,-29.1953125],[-179.57489013671875,-34.35980224609375],[-183.01788330078125,-38.2332763671875],[-189.47357177734375,-42.9674072265625],[-196.79010009765625,-47.70159912109375],[-200.66351318359375,-51.57501220703125],[-202.8154296875,-55.87890625],[-200.66351318359375,-59.7523193359375],[-210.56231689453125,-58.461181640625],[-211.4229736328125,-89.87890625],[153.10931396484375,-92.8916015625],[152.67889404296875,-62.764892578125],[90.273681640625,-61.47381591796875],[87.6915283203125,-63.62567138671875],[85.53948974609375,-64.91680908203125],[82.957275390625,-65.3472900390625],[79.9447021484375,-65.777587890625],[76.931884765625,-64.91680908203125],[73.9193115234375,-63.62567138671875],[72.19769287109375,-61.47381591796875],[-71.97967529296875,-59.7523193359375],[-72.41009521484375,-37.37249755859375],[-59.49871826171875,-37.37249755859375],[-59.9290771484375,19.00732421875],[-61.65057373046875,21.5897216796875],[-63.3720703125,21.5897216796875],[-67.6759033203125,21.5897216796875],[-71.54937744140625,21.5897216796875],[-73.7012939453125,22.45050048828125],[-75.85321044921875,24.171875],[-78.86578369140625,25.89349365234375],[-80.5872802734375,30.627685546875],[-107.2708740234375,31.48828125],[-107.7012939453125,68.5010986328125],[-147.7266845703125,68.9315185546875],[-149.87860107421875,67.2100830078125],[-151.60009765625,65.488525390625],[-154.61279296875,61.1846923828125],[-158.4862060546875,59.03271484375],[-165.80267333984375,56.02008056640625],[-171.8280029296875,54.29852294921875],[-176.13177490234375,53.43768310546875],[-181.29638671875,53.8682861328125],[-183.01788330078125,54.29852294921875],[-186.03057861328125,54.7288818359375],[-191.62548828125,56.88092041015625],[-193.34698486328125,58.60247802734375],[-195.068603515625,59.03271484375],[-196.35968017578125,57.74169921875],[-197.65087890625,55.5897216796875],[-199.80279541015625,53.43768310546875],[-204.5369873046875,49.56427001953125],[-209.70147705078125,46.55169677734375]]]},"properties":{"FID":0,"Id":0,"GCR":"GCR"}},{"type":"Feature","id":1,"geometry":{"type":"Polygon","coordinates":[[[151.818115234375,43.53912353515625],[149.66632080078125,42.2479248046875],[146.6536865234375,40.09588623046875],[145.36248779296875,38.80487060546875],[145.36248779296875,37.08331298828125],[144.0712890625,36.653076171875],[142.7802734375,32.77947998046875],[142.7802734375,31.05810546875],[144.501708984375,28.4757080078125],[144.93212890625,26.32391357421875],[145.79290771484375,24.171875],[146.22332763671875,22.02008056640625],[147.5142822265625,21.5897216796875],[148.3751220703125,19.86810302734375],[148.3751220703125,18.146484375],[148.80548095703125,15.99468994140625],[147.5142822265625,13.4124755859375],[146.22332763671875,11.69091796875],[146.22332763671875,9.969482421875],[146.6536865234375,9.53887939453125],[146.6536865234375,7.8175048828125],[148.3751220703125,6.95672607421875],[149.23590087890625,6.95672607421875],[151.818115234375,4.37451171875],[152.24847412109375,43.10870361328125],[151.818115234375,43.53912353515625]]]},"properties":{"FID":1,"Id":0,"GCR":"GCR"}},{"type":"Feature","id":2,"geometry":{"type":"Polygon","coordinates":[]},"properties":{"FID":2,"Id":0,"GCR":" "}}]}