{"type":"FeatureCollection", "features": [
{"type":"Feature","geometry":{"type":"Polygon","coordinates":[[[-210.13189697234867,69.79229736345826],[-107.70129394552475,68.50109863257819],[-106.84057617166832,31.05810546895418],[-81.01770019526867,31.488281249615113],[-79.29620361318263,27.184692383031006],[-78.43548584022557,25.463073730399913],[-76.71392822286697,23.741516113041314],[-74.13159179727876,22.02008056622782],[-71.97967529254231,21.58972167974929],[-68.10632324189169,22.02008056622782],[-64.66320800807387,22.02008056622782],[-61.22027587917438,19.868103027118195],[-59.92907714829431,19.007324218888527],[-59.49871826181578,14.703491211214327],[-60.78979492215075,-37.37249755841782],[-71.1190185548578,-36.94207763666674],[-71.54937744133633,-60.613098144501805],[20.552124023325632,-61.04339599570778],[19.69128417982347,30.6276855472031],[47.23571777358171,29.766906738074113],[46.80529785183063,67.64031982434858],[149.66632080040563,66.77947998084642],[150.09667968778353,90.88092041043257],[-210.13189697234867,92.17211914041332],[-209.7014770505976,69.79229736345826],[-210.13189697234867,69.79229736345826]]]},"properties":{"OBJECTID":1,"Id":0,"area":"BCR","Shape_Leng":1042.61991307,"Shape_Area":21958.085473}}
]}