{"type":"FeatureCollection", "features": [
{"type":"Feature","geometry":{"type":"Polygon","coordinates":[[[149.66632080078125,67.2100830078125],[47.2357177734375,67.64031982421875],[46.8052978515625,29.76690673828125],[19.26092529296875,29.76690673828125],[18.40008544921875,-60.61309814453125],[72.62811279296875,-61.04339599609375],[75.21051025390625,-64.05609130859375],[77.792724609375,-65.3472900390625],[79.9447021484375,-65.777587890625],[82.957275390625,-66.638427734375],[85.53948974609375,-65.777587890625],[88.98248291015625,-64.91680908203125],[90.273681640625,-62.3345947265625],[90.7041015625,-62.3345947265625],[149.66632080078125,-62.3345947265625],[150.527099609375,5.66552734375],[149.66632080078125,6.52630615234375],[147.5142822265625,7.8175048828125],[145.79290771484375,9.10870361328125],[145.79290771484375,9.969482421875],[145.79290771484375,12.12127685546875],[147.08392333984375,14.2730712890625],[148.80548095703125,16.42510986328125],[148.80548095703125,18.57708740234375],[147.5142822265625,22.45050048828125],[146.22332763671875,23.74151611328125],[144.93212890625,24.602294921875],[144.93212890625,27.61492919921875],[142.34967041015625,29.76690673828125],[142.34967041015625,31.91888427734375],[141.48907470703125,33.20989990234375],[144.0712890625,36.22247314453125],[144.501708984375,38.80487060546875],[145.36248779296875,41.3870849609375],[146.6536865234375,41.8175048828125],[147.08392333984375,43.10870361328125],[148.80548095703125,43.969482421875],[150.527099609375,45.69091796875],[149.66632080078125,66.34930419921875],[149.66632080078125,67.2100830078125]]]},"properties":{"Id":0,"area":"KCC"}},
{"type":"Feature","geometry":{"type":"Polygon","coordinates":[[[-209.70147705078125,70.653076171875],[-210.99267578125,70.22271728515625],[-210.56231689453125,46.55169677734375],[-206.68878173828125,49.13409423828125],[-202.8154296875,52.146728515625],[-199.37237548828125,54.29852294921875],[-198.9420166015625,56.88092041015625],[-196.79010009765625,58.60247802734375],[-195.068603515625,57.74169921875],[-191.62548828125,56.88092041015625],[-186.46099853515625,55.5897216796875],[-184.30908203125,55.1593017578125],[-180.43560791015625,54.29852294921875],[-175.2711181640625,54.29852294921875],[-171.3975830078125,54.7288818359375],[-163.22039794921875,57.74169921875],[-158.4862060546875,59.46307373046875],[-153.7520751953125,61.6151123046875],[-152.030517578125,63.33648681640625],[-149.44818115234375,66.34930419921875],[-149.01788330078125,68.9315185546875],[-209.70147705078125,70.653076171875]]]},"properties":{"Id":0,"area":"KCC"}},
{"type":"Feature","geometry":{"type":"Polygon","coordinates":[[[-210.13189697265625,2.22247314453125],[-211.8533935546875,1.3616943359375],[-210.99267578125,-59.3218994140625],[-199.80279541015625,-59.3218994140625],[-201.9547119140625,-57.60040283203125],[-202.8154296875,-56.7396240234375],[-203.67620849609375,-55.448486328125],[-201.5242919921875,-53.29656982421875],[-198.5115966796875,-50.71429443359375],[-196.35968017578125,-49.85357666015625],[-194.63818359375,-48.13201904296875],[-192.486328125,-45.9801025390625],[-189.47357177734375,-42.9674072265625],[-185.6002197265625,-39.95477294921875],[-182.58758544921875,-37.37249755859375],[-180.00518798828125,-35.2205810546875],[-178.28369140625,-33.0687255859375],[-178.28369140625,-32.2078857421875],[-178.28369140625,-30.91680908203125],[-176.13177490234375,-29.6256103515625],[-175.70147705078125,-26.61297607421875],[-176.13177490234375,-24.8914794921875],[-174.4102783203125,-22.739501953125],[-173.97991943359375,-20.58770751953125],[-172.2584228515625,-19.7269287109375],[-172.2584228515625,-17.14459228515625],[-171.8280029296875,-14.99267578125],[-171.8280029296875,-14.13189697265625],[-173.97991943359375,-13.27117919921875],[-175.2711181640625,-12.410400390625],[-178.28369140625,-11.5496826171875],[-181.29638671875,-11.5496826171875],[-183.87872314453125,-10.68890380859375],[-184.7393798828125,-10.25848388671875],[-186.46099853515625,-9.397705078125],[-189.043212890625,-8.5369873046875],[-191.1951904296875,-6.38507080078125],[-192.91668701171875,-7.24591064453125],[-194.63818359375,-7.24591064453125],[-196.35968017578125,-6.81549072265625],[-198.0811767578125,-6.81549072265625],[-200.23309326171875,-6.81549072265625],[-201.0938720703125,-5.093994140625],[-202.8154296875,-4.23321533203125],[-203.24578857421875,-3.80279541015625],[-204.10650634765625,-3.80279541015625],[-205.397705078125,-2.51171875],[-205.397705078125,-1.65087890625],[-206.68878173828125,-0.35980224609375],[-207.97998046875,0.9312744140625],[-208.410400390625,0.9312744140625],[-209.70147705078125,0.5010986328125],[-210.13189697265625,2.22247314453125]]]},"properties":{"Id":0,"area":"KCC"}}
]}