{
  "type": "PolygonCollection",
  "timestamp": "2026-03-14T03:42:11.912Z",
  "count": 3,
  "polygons": [
    {
      "name": "东格陵兰盆地",
      "points": [
        {
          "longitude": -21.35231891739406,
          "latitude": 70.20498750396627
        },
        {
          "longitude": -24.81445979984594,
          "latitude": 70.74653611825373
        },
        {
          "longitude": -24.269821475656162,
          "latitude": 72.28842746467294
        },
        {
          "longitude": -23.513845091067527,
          "latitude": 72.71225035485217
        },
        {
          "longitude": -21.853296095938216,
          "latitude": 74.36623148559465
        },
        {
          "longitude": -19.985549113799774,
          "latitude": 73.94716252477465
        },
        {
          "longitude": -18.451622048368353,
          "latitude": 74.13940649183995
        },
        {
          "longitude": -18.132517291252736,
          "latitude": 74.72170824894773
        },
        {
          "longitude": -17.120077745132026,
          "latitude": 75.02064803773894
        },
        {
          "longitude": -15.94238307388763,
          "latitude": 74.84677112879032
        },
        {
          "longitude": -16.273738232844522,
          "latitude": 74.03398205226979
        },
        {
          "longitude": -15.238411471572283,
          "latitude": 74.16912038969977
        },
        {
          "longitude": -16.30124815176067,
          "latitude": 81.15845843488005
        },
        {
          "longitude": -22.52188766635263,
          "latitude": 82.81441669443613
        },
        {
          "longitude": -26.339923888589503,
          "latitude": 83.6496791768506
        },
        {
          "longitude": -11.168412925714772,
          "latitude": 83.29197292442433
        },
        {
          "longitude": -3.036099967943515,
          "latitude": 82.94417442962501
        },
        {
          "longitude": -5.026330234075267,
          "latitude": 76.709089065832
        },
        {
          "longitude": -8.122754254989506,
          "latitude": 76.69891573697507
        },
        {
          "longitude": -9.599067339104899,
          "latitude": 74.75816578103486
        },
        {
          "longitude": -10.494463515943252,
          "latitude": 73.79730816019361
        },
        {
          "longitude": -13.283084523613262,
          "latitude": 72.90202944862504
        },
        {
          "longitude": -14.242980536907236,
          "latitude": 68.50426581322394
        },
        {
          "longitude": -19.284893829670334,
          "latitude": 68.23081693800445
        },
        {
          "longitude": -17.26560891970074,
          "latitude": 71.93543020482211
        },
        {
          "longitude": -20.545368172974438,
          "latitude": 70.46497055733066
        },
        {
          "longitude": -20.545368172970388,
          "latitude": 70.46497055733364
        }
      ],
      "timestamp": "2026-03-14T03:36:30.800Z"
    },
    {
      "name": "斯沃尔德鲁普盆地",
      "points": [
        {
          "longitude": -68.03836173636009,
          "latitude": 82.55435650753641
        },
        {
          "longitude": -89.86824345386735,
          "latitude": 75.61047622185431
        },
        {
          "longitude": -101.71049585684557,
          "latitude": 74.6336992284851
        },
        {
          "longitude": -103.71121397937173,
          "latitude": 75.45836108691226
        },
        {
          "longitude": -113.10728512463392,
          "latitude": 74.43373915179299
        },
        {
          "longitude": -122.02466576485749,
          "latitude": 75.87924305920502
        },
        {
          "longitude": -101.07295466031825,
          "latitude": 78.89888450135277
        },
        {
          "longitude": -97.76557501310452,
          "latitude": 80.37170954808852
        },
        {
          "longitude": -94.54820226899379,
          "latitude": 81.15005270570437
        },
        {
          "longitude": -90.92729502734635,
          "latitude": 81.65282270599474
        },
        {
          "longitude": -86.16504716841973,
          "latitude": 82.24929723689779
        },
        {
          "longitude": -81.99031552709405,
          "latitude": 81.86926755783495
        },
        {
          "longitude": -73.69909728177127,
          "latitude": 82.51241936374277
        },
        {
          "longitude": -68.51763790617723,
          "latitude": 82.59065988757064
        }
      ],
      "timestamp": "2026-03-14T03:37:57.369Z"
    },
    {
      "name": "麦肯齐盆地",
      "points": [
        {
          "longitude": -128.41972784065504,
          "latitude": 70.58819380738878
        },
        {
          "longitude": -136.89021469969595,
          "latitude": 67.53077497353861
        },
        {
          "longitude": -138.7115022228563,
          "latitude": 67.54932212532303
        },
        {
          "longitude": -139.30566167696549,
          "latitude": 66.34021534849533
        },
        {
          "longitude": -140.8731456200945,
          "latitude": 66.09586646543359
        },
        {
          "longitude": -141.36413708857296,
          "latitude": 67.55741238328793
        },
        {
          "longitude": -141.6089902383011,
          "latitude": 68.19590195519001
        },
        {
          "longitude": -143.32386510422324,
          "latitude": 68.20989629557809
        },
        {
          "longitude": -145.5233511906289,
          "latitude": 68.40077038847204
        },
        {
          "longitude": -146.18946021447044,
          "latitude": 68.66430572392765
        },
        {
          "longitude": -147.59437185984254,
          "latitude": 69.19227604813956
        },
        {
          "longitude": -151.01530353216666,
          "latitude": 69.04460884570024
        },
        {
          "longitude": -153.0669210755008,
          "latitude": 68.37888365278947
        },
        {
          "longitude": -153.76041789090561,
          "latitude": 67.73718618207394
        },
        {
          "longitude": -156.21243426239684,
          "latitude": 67.59259731050145
        },
        {
          "longitude": -158.27568995537675,
          "latitude": 67.81847602513609
        },
        {
          "longitude": -160.48584214499226,
          "latitude": 68.13351042011931
        },
        {
          "longitude": -161.62551780994949,
          "latitude": 68.08590727475993
        },
        {
          "longitude": -163.64380492389077,
          "latitude": 67.62713672002218
        },
        {
          "longitude": -165.05254005511418,
          "latitude": 66.93772163974083
        },
        {
          "longitude": -166.7495966688152,
          "latitude": 66.77099556341621
        },
        {
          "longitude": -167.91572958769268,
          "latitude": 67.90590832642866
        },
        {
          "longitude": -168.45751212793982,
          "latitude": 68.62981282791587
        },
        {
          "longitude": -169.29944277981366,
          "latitude": 69.19755082062458
        },
        {
          "longitude": -170.22793287020085,
          "latitude": 69.99310282433717
        },
        {
          "longitude": -169.63678740172455,
          "latitude": 71.4295786888668
        },
        {
          "longitude": -166.7218696927851,
          "latitude": 73.48493331407579
        },
        {
          "longitude": -162.60657423971014,
          "latitude": 75.45615769575474
        },
        {
          "longitude": -154.93734342215313,
          "latitude": 73.14317203195372
        },
        {
          "longitude": -153.79444923819645,
          "latitude": 70.83117731474296
        },
        {
          "longitude": -149.56318737751988,
          "latitude": 71.56750293711647
        },
        {
          "longitude": -147.05473401889765,
          "latitude": 70.82614508605067
        },
        {
          "longitude": -145.0497483660915,
          "latitude": 70.15493871618229
        },
        {
          "longitude": -142.78664100878922,
          "latitude": 69.78196357009917
        },
        {
          "longitude": -141.8242857539713,
          "latitude": 70.24904352707514
        },
        {
          "longitude": -139.91612618929207,
          "latitude": 71.08511588878275
        },
        {
          "longitude": -128.1043072333666,
          "latitude": 70.73621587795203
        }
      ],
      "timestamp": "2026-03-14T03:40:29.715Z"
    }
  ]
}