{
  "type": "PolygonCollection",
  "timestamp": "2026-03-14T04:38:27.729Z",
  "count": 10,
  "polygons": [
    {
      "name": "东格陵兰盆地",
      "points": [
        {
          "longitude": -21.35231891739406,
          "latitude": 70.20498750396627
        },
        {
          "longitude": -24.81445979984594,
          "latitude": 70.74653611825373
        },
        {
          "longitude": -24.269821475656162,
          "latitude": 72.28842746467294
        },
        {
          "longitude": -23.513845091067527,
          "latitude": 72.71225035485217
        },
        {
          "longitude": -21.853296095938216,
          "latitude": 74.36623148559465
        },
        {
          "longitude": -19.985549113799774,
          "latitude": 73.94716252477465
        },
        {
          "longitude": -18.451622048368353,
          "latitude": 74.13940649183995
        },
        {
          "longitude": -18.132517291252736,
          "latitude": 74.72170824894773
        },
        {
          "longitude": -17.120077745132026,
          "latitude": 75.02064803773894
        },
        {
          "longitude": -15.94238307388763,
          "latitude": 74.84677112879032
        },
        {
          "longitude": -16.273738232844522,
          "latitude": 74.03398205226979
        },
        {
          "longitude": -15.238411471572283,
          "latitude": 74.16912038969977
        },
        {
          "longitude": -16.30124815176067,
          "latitude": 81.15845843488005
        },
        {
          "longitude": -22.52188766635263,
          "latitude": 82.81441669443613
        },
        {
          "longitude": -26.339923888589503,
          "latitude": 83.6496791768506
        },
        {
          "longitude": -11.168412925714772,
          "latitude": 83.29197292442433
        },
        {
          "longitude": -3.036099967943515,
          "latitude": 82.94417442962501
        },
        {
          "longitude": -5.026330234075267,
          "latitude": 76.709089065832
        },
        {
          "longitude": -8.122754254989506,
          "latitude": 76.69891573697507
        },
        {
          "longitude": -9.599067339104899,
          "latitude": 74.75816578103486
        },
        {
          "longitude": -10.494463515943252,
          "latitude": 73.79730816019361
        },
        {
          "longitude": -13.283084523613262,
          "latitude": 72.90202944862504
        },
        {
          "longitude": -14.242980536907236,
          "latitude": 68.50426581322394
        },
        {
          "longitude": -19.284893829670334,
          "latitude": 68.23081693800445
        },
        {
          "longitude": -17.26560891970074,
          "latitude": 71.93543020482211
        },
        {
          "longitude": -20.545368172974438,
          "latitude": 70.46497055733066
        },
        {
          "longitude": -20.545368172970388,
          "latitude": 70.46497055733364
        }
      ],
      "timestamp": "2026-03-14T03:36:30.800Z"
    },
    {
      "name": "斯沃尔德鲁普盆地",
      "points": [
        {
          "longitude": -68.03836173636009,
          "latitude": 82.55435650753641
        },
        {
          "longitude": -89.86824345386735,
          "latitude": 75.61047622185431
        },
        {
          "longitude": -101.71049585684557,
          "latitude": 74.6336992284851
        },
        {
          "longitude": -103.71121397937173,
          "latitude": 75.45836108691226
        },
        {
          "longitude": -113.10728512463392,
          "latitude": 74.43373915179299
        },
        {
          "longitude": -122.02466576485749,
          "latitude": 75.87924305920502
        },
        {
          "longitude": -101.07295466031825,
          "latitude": 78.89888450135277
        },
        {
          "longitude": -97.76557501310452,
          "latitude": 80.37170954808852
        },
        {
          "longitude": -94.54820226899379,
          "latitude": 81.15005270570437
        },
        {
          "longitude": -90.92729502734635,
          "latitude": 81.65282270599474
        },
        {
          "longitude": -86.16504716841973,
          "latitude": 82.24929723689779
        },
        {
          "longitude": -81.99031552709405,
          "latitude": 81.86926755783495
        },
        {
          "longitude": -73.69909728177127,
          "latitude": 82.51241936374277
        },
        {
          "longitude": -68.51763790617723,
          "latitude": 82.59065988757064
        }
      ],
      "timestamp": "2026-03-14T03:37:57.369Z"
    },
    {
      "name": "麦肯齐盆地",
      "points": [
        {
          "longitude": -128.41972784065504,
          "latitude": 70.58819380738878
        },
        {
          "longitude": -136.89021469969595,
          "latitude": 67.53077497353861
        },
        {
          "longitude": -138.7115022228563,
          "latitude": 67.54932212532303
        },
        {
          "longitude": -139.30566167696549,
          "latitude": 66.34021534849533
        },
        {
          "longitude": -140.8731456200945,
          "latitude": 66.09586646543359
        },
        {
          "longitude": -141.36413708857296,
          "latitude": 67.55741238328793
        },
        {
          "longitude": -141.6089902383011,
          "latitude": 68.19590195519001
        },
        {
          "longitude": -143.32386510422324,
          "latitude": 68.20989629557809
        },
        {
          "longitude": -145.5233511906289,
          "latitude": 68.40077038847204
        },
        {
          "longitude": -146.18946021447044,
          "latitude": 68.66430572392765
        },
        {
          "longitude": -147.59437185984254,
          "latitude": 69.19227604813956
        },
        {
          "longitude": -151.01530353216666,
          "latitude": 69.04460884570024
        },
        {
          "longitude": -153.0669210755008,
          "latitude": 68.37888365278947
        },
        {
          "longitude": -153.76041789090561,
          "latitude": 67.73718618207394
        },
        {
          "longitude": -156.21243426239684,
          "latitude": 67.59259731050145
        },
        {
          "longitude": -158.27568995537675,
          "latitude": 67.81847602513609
        },
        {
          "longitude": -160.48584214499226,
          "latitude": 68.13351042011931
        },
        {
          "longitude": -161.62551780994949,
          "latitude": 68.08590727475993
        },
        {
          "longitude": -163.64380492389077,
          "latitude": 67.62713672002218
        },
        {
          "longitude": -165.05254005511418,
          "latitude": 66.93772163974083
        },
        {
          "longitude": -166.7495966688152,
          "latitude": 66.77099556341621
        },
        {
          "longitude": -167.91572958769268,
          "latitude": 67.90590832642866
        },
        {
          "longitude": -168.45751212793982,
          "latitude": 68.62981282791587
        },
        {
          "longitude": -169.29944277981366,
          "latitude": 69.19755082062458
        },
        {
          "longitude": -170.22793287020085,
          "latitude": 69.99310282433717
        },
        {
          "longitude": -169.63678740172455,
          "latitude": 71.4295786888668
        },
        {
          "longitude": -166.7218696927851,
          "latitude": 73.48493331407579
        },
        {
          "longitude": -162.60657423971014,
          "latitude": 75.45615769575474
        },
        {
          "longitude": -154.93734342215313,
          "latitude": 73.14317203195372
        },
        {
          "longitude": -153.79444923819645,
          "latitude": 70.83117731474296
        },
        {
          "longitude": -149.56318737751988,
          "latitude": 71.56750293711647
        },
        {
          "longitude": -147.05473401889765,
          "latitude": 70.82614508605067
        },
        {
          "longitude": -145.0497483660915,
          "latitude": 70.15493871618229
        },
        {
          "longitude": -142.78664100878922,
          "latitude": 69.78196357009917
        },
        {
          "longitude": -141.8242857539713,
          "latitude": 70.24904352707514
        },
        {
          "longitude": -139.91612618929207,
          "latitude": 71.08511588878275
        },
        {
          "longitude": -128.1043072333666,
          "latitude": 70.73621587795203
        }
      ],
      "timestamp": "2026-03-14T03:40:29.715Z"
    },
    {
      "name": "巴伦支海台地",
      "points": [
        {
          "longitude": 16.570025785481565,
          "latitude": 79.51801184003743
        },
        {
          "longitude": 25.64259079882902,
          "latitude": 79.40363609769271
        },
        {
          "longitude": 27.21292779844824,
          "latitude": 80.42345173973287
        },
        {
          "longitude": 30.512326562890106,
          "latitude": 80.47826099713589
        },
        {
          "longitude": 36.798131053934554,
          "latitude": 81.70880002696619
        },
        {
          "longitude": 40.63138256528154,
          "latitude": 81.03662441321805
        },
        {
          "longitude": 48.532011714824115,
          "latitude": 80.48805077459998
        },
        {
          "longitude": 43.433363248470144,
          "latitude": 78.77187126953481
        },
        {
          "longitude": 47.97470199561556,
          "latitude": 77.19587603644698
        },
        {
          "longitude": 31.621312203826957,
          "latitude": 70.8118756207067
        },
        {
          "longitude": 21.64937801650165,
          "latitude": 72.56454777365087
        },
        {
          "longitude": 14.09403370201936,
          "latitude": 68.88365215891658
        },
        {
          "longitude": 16.000374182626466,
          "latitude": 71.57902630053884
        },
        {
          "longitude": 18.46208790191598,
          "latitude": 73.29571786156858
        },
        {
          "longitude": 21.229520795193736,
          "latitude": 75.72007158651776
        },
        {
          "longitude": 14.571089408999772,
          "latitude": 74.58024757722872
        },
        {
          "longitude": 15.387106543271774,
          "latitude": 79.36935250042909
        }
      ],
      "timestamp": "2026-03-14T03:46:34.859Z"
    },
    {
      "name": "东巴伦支海盆地",
      "points": [
        {
          "longitude": 34.34759272528247,
          "latitude": 72.2773139015322
        },
        {
          "longitude": 37.32658609469212,
          "latitude": 71.0671157156836
        },
        {
          "longitude": 38.733654001175154,
          "latitude": 70.36197545085602
        },
        {
          "longitude": 41.71734637241095,
          "latitude": 70.83135057742741
        },
        {
          "longitude": 43.84110524635258,
          "latitude": 71.16165930306116
        },
        {
          "longitude": 46.30986571065183,
          "latitude": 71.96699101785606
        },
        {
          "longitude": 48.103591782406944,
          "latitude": 72.46091787927348
        },
        {
          "longitude": 47.12348579798666,
          "latitude": 73.0102518240121
        },
        {
          "longitude": 46.55078751461047,
          "latitude": 73.73965779095613
        },
        {
          "longitude": 47.30920593472483,
          "latitude": 74.31960136052257
        },
        {
          "longitude": 49.96968917090311,
          "latitude": 75.8736972837884
        },
        {
          "longitude": 63.142992377905315,
          "latitude": 78.22687530130776
        },
        {
          "longitude": 66.54499930940932,
          "latitude": 77.897572104178
        },
        {
          "longitude": 70.16675526133245,
          "latitude": 78.65953282409157
        },
        {
          "longitude": 79.15822903100909,
          "latitude": 78.67202262521238
        },
        {
          "longitude": 77.72244202599163,
          "latitude": 79.99806307017106
        },
        {
          "longitude": 73.162737814246,
          "latitude": 81.59182875400363
        },
        {
          "longitude": 46.81287804322215,
          "latitude": 80.87055329532399
        },
        {
          "longitude": 50.99995528654254,
          "latitude": 80.51478351631958
        },
        {
          "longitude": 47.855088108866056,
          "latitude": 80.16073006025843
        },
        {
          "longitude": 44.860108076974356,
          "latitude": 79.33915549792688
        },
        {
          "longitude": 44.73725391143326,
          "latitude": 78.4584280798875
        },
        {
          "longitude": 47.42519154121641,
          "latitude": 77.60883553372126
        },
        {
          "longitude": 47.884025225279316,
          "latitude": 77.34753402583168
        },
        {
          "longitude": 45.60605957149567,
          "latitude": 76.71525092258065
        },
        {
          "longitude": 43.930264690544455,
          "latitude": 76.05464427692927
        },
        {
          "longitude": 39.85085428948108,
          "latitude": 74.69388280272068
        },
        {
          "longitude": 34.669162584947884,
          "latitude": 72.59493885059506
        }
      ],
      "timestamp": "2026-03-14T03:48:31.869Z"
    },
    {
      "name": "西北部海域凹陷",
      "points": [
        {
          "longitude": 42.92088693949238,
          "latitude": 69.25452806824377
        },
        {
          "longitude": 50.955127241456566,
          "latitude": 72.46892796172176
        },
        {
          "longitude": 51.72794873547021,
          "latitude": 71.64352386808882
        },
        {
          "longitude": 53.00051806459312,
          "latitude": 70.92416381829366
        },
        {
          "longitude": 57.91467776727662,
          "latitude": 70.24446436445281
        },
        {
          "longitude": 55.106632222503826,
          "latitude": 69.8927095185583
        },
        {
          "longitude": 47.43703048460379,
          "latitude": 68.25767214841724
        },
        {
          "longitude": 42.829339512689145,
          "latitude": 69.26169544923086
        }
      ],
      "timestamp": "2026-03-14T03:49:35.508Z"
    },
    {
      "name": "南喀拉海次盆",
      "points": [
        {
          "longitude": 71.59223630881446,
          "latitude": 73.85904968564839
        },
        {
          "longitude": 67.50491174913012,
          "latitude": 73.23071388908004
        },
        {
          "longitude": 66.52224601287637,
          "latitude": 71.85809278596696
        },
        {
          "longitude": 65.90073995444398,
          "latitude": 70.71034893051034
        },
        {
          "longitude": 66.55229061065296,
          "latitude": 69.9019641065874
        },
        {
          "longitude": 68.1949244762717,
          "latitude": 68.75105111590838
        },
        {
          "longitude": 70.58610314271544,
          "latitude": 67.65391995281917
        },
        {
          "longitude": 72.68863803967551,
          "latitude": 68.97906853135679
        },
        {
          "longitude": 73.02963558906556,
          "latitude": 69.57508400226759
        },
        {
          "longitude": 75.15624758830238,
          "latitude": 69.33812571424734
        },
        {
          "longitude": 72.82995435697929,
          "latitude": 66.80688332108332
        },
        {
          "longitude": 85.49495083150327,
          "latitude": 67.0056171053189
        },
        {
          "longitude": 85.668678102323,
          "latitude": 68.58182657213047
        },
        {
          "longitude": 84.02125969266457,
          "latitude": 70.43749796657231
        },
        {
          "longitude": 81.87580311196692,
          "latitude": 71.41426467456223
        },
        {
          "longitude": 79.82174119012049,
          "latitude": 71.8764432606063
        },
        {
          "longitude": 78.83502813708668,
          "latitude": 72.27265316541899
        },
        {
          "longitude": 81.92694559265567,
          "latitude": 74.91604643264964
        },
        {
          "longitude": 78.42497298103261,
          "latitude": 74.94122576528602
        },
        {
          "longitude": 77.0696713592584,
          "latitude": 74.22501186745238
        },
        {
          "longitude": 74.69141575304351,
          "latitude": 74.8332977051237
        },
        {
          "longitude": 74.9047978815378,
          "latitude": 70.60165541324582
        },
        {
          "longitude": 73.60296755030758,
          "latitude": 71.59157131529754
        },
        {
          "longitude": 72.66969270500029,
          "latitude": 74.19357917327429
        }
      ],
      "timestamp": "2026-03-14T03:53:42.968Z"
    },
    {
      "name": "叶尼塞-哈坦加次盆",
      "points": [
        {
          "longitude": 80.74159328853229,
          "latitude": 73.74771085423203
        },
        {
          "longitude": 84.72689509420269,
          "latitude": 73.61340618420783
        },
        {
          "longitude": 87.98176421808495,
          "latitude": 73.69416614497457
        },
        {
          "longitude": 92.18653314317248,
          "latitude": 74.02739518762533
        },
        {
          "longitude": 96.1840421905864,
          "latitude": 74.15486375483754
        },
        {
          "longitude": 99.35334264871774,
          "latitude": 74.13514467901445
        },
        {
          "longitude": 102.92177865543407,
          "latitude": 74.82326932647109
        },
        {
          "longitude": 105.94203165090474,
          "latitude": 75.0983672888166
        },
        {
          "longitude": 110.12533453955828,
          "latitude": 74.58642599777944
        },
        {
          "longitude": 107.87740686085598,
          "latitude": 73.59916182879222
        },
        {
          "longitude": 104.96465423306998,
          "latitude": 73.26028160616737
        },
        {
          "longitude": 103.6147923384844,
          "latitude": 72.16611118333965
        },
        {
          "longitude": 101.73599734321544,
          "latitude": 71.06060633796172
        },
        {
          "longitude": 98.2126256550423,
          "latitude": 70.62430752357147
        },
        {
          "longitude": 93.11593074079612,
          "latitude": 70.44835018567598
        },
        {
          "longitude": 88.80896928952531,
          "latitude": 70.23703266954588
        },
        {
          "longitude": 87.80240711594439,
          "latitude": 69.49562250060515
        },
        {
          "longitude": 85.02996679563007,
          "latitude": 69.97987818635734
        },
        {
          "longitude": 85.14024840577675,
          "latitude": 71.02655887452538
        },
        {
          "longitude": 86.17233538586945,
          "latitude": 72.05072019936166
        },
        {
          "longitude": 82.04213147366814,
          "latitude": 72.83608686362035
        },
        {
          "longitude": 81.03053101097005,
          "latitude": 73.44642006417234
        }
      ],
      "timestamp": "2026-03-14T03:54:50.069Z"
    },
    {
      "name": "拉普帖夫海盆地",
      "points": [
        {
          "longitude": 104.65353358910815,
          "latitude": 77.96238132109396
        },
        {
          "longitude": 113.11713055435702,
          "latitude": 77.47199865502867
        },
        {
          "longitude": 118.24178252466392,
          "latitude": 76.74917379740097
        },
        {
          "longitude": 117.01356739098699,
          "latitude": 75.8017567432802
        },
        {
          "longitude": 115.84355728506112,
          "latitude": 75.34492533690539
        },
        {
          "longitude": 114.94562911937437,
          "latitude": 74.6896054068672
        },
        {
          "longitude": 115.14523741258148,
          "latitude": 73.99364033906588
        },
        {
          "longitude": 116.95748250938831,
          "latitude": 73.57834049521041
        },
        {
          "longitude": 130.75479902143846,
          "latitude": 72.42419563253817
        },
        {
          "longitude": 131.41648236703656,
          "latitude": 71.89331245903153
        },
        {
          "longitude": 134.35011180051748,
          "latitude": 71.98669421334259
        },
        {
          "longitude": 135.299783456562,
          "latitude": 72.61220527224742
        },
        {
          "longitude": 132.34708589699326,
          "latitude": 73.85436821494757
        },
        {
          "longitude": 132.12436675954058,
          "latitude": 77.21390498999216
        },
        {
          "longitude": 129.86690681216365,
          "latitude": 77.64823717344187
        },
        {
          "longitude": 125.12797701946899,
          "latitude": 77.32177725110294
        },
        {
          "longitude": 121.41023132091578,
          "latitude": 77.47282301638478
        },
        {
          "longitude": 117.52900889249531,
          "latitude": 77.91371961406159
        },
        {
          "longitude": 104.98741643994094,
          "latitude": 78.16486483966166
        }
      ],
      "timestamp": "2026-03-14T03:56:01.916Z"
    },
    {
      "name": "勒拿-维柳伊次盆",
      "points": [
        {
          "longitude": 128.04499088016252,
          "latitude": 72.77757970701698
        },
        {
          "longitude": 130.13622291145245,
          "latitude": 71.7219734085009
        },
        {
          "longitude": 131.26509139632506,
          "latitude": 71.02044475070878
        },
        {
          "longitude": 130.06647537240022,
          "latitude": 70.5351483041382
        },
        {
          "longitude": 129.57864574359905,
          "latitude": 68.17816010533146
        },
        {
          "longitude": 130.57642643533094,
          "latitude": 67.55783851110512
        },
        {
          "longitude": 131.66430497216948,
          "latitude": 66.86430025350428
        },
        {
          "longitude": 133.21218839087322,
          "latitude": 66.34628625406896
        },
        {
          "longitude": 138.60242422146206,
          "latitude": 65.0014965845781
        },
        {
          "longitude": 141.96006823688055,
          "latitude": 63.63609360390544
        },
        {
          "longitude": 141.31823042714302,
          "latitude": 62.470957982697584
        },
        {
          "longitude": 139.35072833513425,
          "latitude": 62.44893376516152
        },
        {
          "longitude": 135.99690204789798,
          "latitude": 63.41920960892801
        },
        {
          "longitude": 132.74266624091263,
          "latitude": 63.79126398323938
        },
        {
          "longitude": 130.22018979546243,
          "latitude": 63.466087369417885
        },
        {
          "longitude": 126.51377299746696,
          "latitude": 64.18159722810283
        },
        {
          "longitude": 121.6160538576524,
          "latitude": 65.06675834112734
        },
        {
          "longitude": 120.52650637927385,
          "latitude": 64.8022635138589
        },
        {
          "longitude": 116.39680813089254,
          "latitude": 66.55048790417923
        },
        {
          "longitude": 116.64679523822542,
          "latitude": 68.03263948198206
        },
        {
          "longitude": 121.60854076539763,
          "latitude": 68.74662812803585
        },
        {
          "longitude": 122.28610754040606,
          "latitude": 69.44887473991116
        },
        {
          "longitude": 122.88558656347237,
          "latitude": 70.45198032452649
        },
        {
          "longitude": 123.06576444480542,
          "latitude": 71.48640848308371
        },
        {
          "longitude": 123.87247368603933,
          "latitude": 72.26500291341867
        },
        {
          "longitude": 125.9640833710419,
          "latitude": 72.98955370830294
        }
      ],
      "timestamp": "2026-03-14T03:58:04.324Z"
    }
  ]
}