{"type":"FeatureCollection", "features": [
{"type":"Feature","geometry":{"type":"LineString","coordinates":[[138.4876708984375,46.05419921875],[148.9869384765625,46.05419921875],[149.01666259765625,41.32513427734375],[138.457763671875,41.4141845703125],[138.42803955078125,46.0245361328125]]},"properties":{"Id":0,"Name":"北海道周边"}},
{"type":"Feature","geometry":{"type":"LineString","coordinates":[[137.92241226720614,36.83374014613213],[137.89266900463315,41.354716057209544],[142.83005059173104,41.354716057209544],[142.80030732915816,36.62553730812198],[140.71827894905664,36.655280570694856]]},"properties":{"Id":0,"Name":"本州北部周边"}},
{"type":"Feature","geometry":{"type":"LineString","coordinates":[[130.84351577486098,34.21633303971879],[130.84351577486098,38.52910611278605],[137.86292574206038,38.469619587640295],[137.89266900463315,36.86348340870501]]},"properties":{"Id":0,"Name":"日本海西南"}},
{"type":"Feature","geometry":{"type":"LineString","coordinates":[[140.68853568648376,36.62553730812198],[141.7592931391074,36.655280570694856],[141.81877966425316,29.427667765485296],[132.89580089238962,29.457411028058175],[132.80657110467098,32.63994012335621]]},"properties":{"Id":0,"Name":"本州南海岸和四国南海岸"}},
{"type":"Feature","geometry":{"type":"LineString","coordinates":[[130.84351577486098,35.01940112918652],[127.48252710412567,35.01940112918652],[127.51227036669854,28.32716705028878],[122.57488877960066,28.32716705028878],[122.60463204217353,23.92516418950271],[132.74708457952522,23.86567766435695],[132.7768278420981,32.69942664850197]]},"properties":{"Id":0,"Name":"九州和南西诸岛周边"}}
]}