{"type":"FeatureCollection", "features": [
{"type":"Feature","geometry":{"type":"Polygon","coordinates":[[[130.1842041015625,31.572265625],[130.17230224609375,31.60198974609375],[130.136474609375,31.6138916015625],[130.10675048828125,31.6435546875],[130.07110595703125,31.66754150390625],[130.065185546875,31.9649658203125],[130.02337646484375,31.99468994140625],[129.97589111328125,32.03033447265625],[129.95806884765625,32.0540771484375],[129.9105224609375,32.0897216796875],[129.86871337890625,32.11346435546875],[129.8271484375,32.1256103515625],[129.82122802734375,32.36932373046875],[129.78558349609375,32.3990478515625],[129.74993896484375,32.42279052734375],[129.71405029296875,32.49432373046875],[129.6368408203125,32.51806640625],[129.62493896484375,32.6370849609375],[128.61956787109375,32.6370849609375],[128.22711181640625,32.6370849609375],[128.20928955078125,31.572265625],[130.1842041015625,31.572265625]]]},"properties":{"Id":0}},
{"type":"Feature","geometry":{"type":"MultiPolygon","coordinates":[[[[128.43870360071287,33.12753927267096],[128.42296147746026,33.12753927267096],[128.43842797399793,33.1269444074195],[128.43870360071287,33.12753927267096]]],[[[128.44645111761395,33.12753927267096],[128.4462603664757,33.14384849498174],[128.43870360071287,33.12753927267096],[128.44645111761395,33.12753927267096]]],[[[128.44645111761395,33.12753927267096],[128.45577821049903,32.330072830987774],[129.82158882784563,32.30627822092947],[129.8198042320912,32.3675493418296],[129.86144479969323,32.406215583174344],[129.90308536729526,32.4419074982618],[129.9149826723244,32.48057373960654],[129.9447259348973,32.49841969715027],[129.97744352372752,32.53708593849501],[130.02205841758678,32.572777853582465],[130.01908409132955,32.60846976866992],[129.98636650249932,32.629290052470935],[129.9536489136692,32.670930620072966],[129.9060596935526,32.62631572621365],[129.8673934522078,32.60549544241263],[129.82575288460578,32.56682920106789],[129.79303529577567,32.546008917266875],[129.7573433806882,32.53708593849501],[129.7186771393434,32.489496718378405],[129.67346738023264,32.51091186743088],[129.6710879192268,32.53708593849501],[129.6710879192268,32.563260009559144],[129.67346738023264,32.61560815168741],[129.66394953620932,32.646541144763205],[129.66632899721515,32.67271521582734],[129.70677983431426,32.66557683280985],[129.71153875632592,32.70364820890313],[129.6710879192268,32.70364820890313],[129.6710879192268,32.76075527304306],[129.63301654313352,32.76313473404889],[129.59732462804607,32.794067727124684],[129.5521148689353,32.796447188130514],[129.55449432994112,32.82500072020048],[129.51166403183618,32.82738018120631],[129.514043492842,32.85593371327627],[129.47121319473706,32.85355425227044],[129.47597211674872,32.889246167357896],[129.4735926557429,32.92255862143952],[129.4355212796496,32.92493808244535],[129.43790074065544,32.953491614515315],[129.47597211674872,32.955871075521145],[129.4735926557429,32.98680406859694],[129.4735926557429,33.01773706167273],[129.4735926557429,33.04867005474853],[129.51166403183618,33.05104951575436],[129.514043492842,33.07484412581266],[129.51166403183618,33.120053884923436],[129.50928457083035,33.1724020270517],[129.47121319473706,33.181919871075024],[129.47121319473706,33.2033350201275],[129.47597211674872,33.35799998550647],[129.50452564881869,33.3603794465123],[129.57828893999942,33.410348127634734],[129.58542732301692,33.43414273769304],[129.64253438715684,33.427004354675546],[129.64491384816267,33.462696269763],[129.6710879192268,33.45555788674551],[129.6710879192268,33.488870340827134],[129.70677983431426,33.493629262838795],[129.71391821733175,33.53170063893208],[129.75198959342504,33.52456225591459],[129.7496101324192,33.55549524899038],[129.79006096951832,33.55787470999621],[129.79006096951832,33.58642824206618],[129.85430641667574,33.58642824206618],[129.94710539590312,33.58642824206618],[129.98220244573918,33.584048781060346],[129.97803838897892,33.86839437125707],[129.90789386141125,33.914248567723575],[129.86982248531797,33.96183778784018],[129.83175110922468,33.980873475886824],[129.78416188910808,34.03798054002675],[129.71753698094483,34.066534072096715],[129.66994776082822,34.11412329221332],[129.63187638473494,34.133158980259964],[129.62518415065585,34.15606129244111],[129.59187169657423,34.16795859747026],[129.5585592424926,34.19175320752856],[129.53000571042264,34.22030673959853],[129.47765756829438,34.25361919368015],[129.47289864628272,34.286931647761776],[129.4157915821428,34.291690569773436],[129.36344344001452,34.25123973267432],[129.34440775196788,34.24410134965683],[129.31585421989791,34.206029973563545],[129.31585421989791,34.1869942855169],[129.31109529788625,34.16557913646443],[129.28968014883378,34.120369377353654],[129.28492122682212,34.09419530628952],[129.244470389723,34.08229800126037],[129.23971146771134,34.06802123522539],[129.19926063061223,34.056123930196236],[129.19450170860057,34.0299498591321],[129.15880979351311,34.0299498591321],[129.11597949540817,34.03232932013793],[129.0874259633382,34.03470878114376],[129.08504650233237,34.08229800126037],[129.08504650233237,34.125128299365315],[129.08980542434404,34.17033805847609],[129.08504650233237,34.22744512261602],[129.02793943819245,34.22268620060436],[128.99938590612248,34.2179272785927],[129.0089037501458,34.15368183143528],[128.96607345204086,34.16082021445277],[128.96607345204086,34.01567309309712],[128.9137253099126,34.01805255410295],[128.91848423192425,33.896700042805605],[128.87803339482514,33.901458964817266],[128.87803339482514,33.79914214156656],[128.83044417470853,33.7943832195549],[128.83044417470853,33.76345022647911],[128.78999333760942,33.76820914849077],[128.78999333760942,33.69444585731003],[128.7876138766036,33.668271786245896],[128.74478357849864,33.670651247251726],[128.74716303950447,33.63257987115844],[128.7424041174928,33.54453981394272],[128.6948148973762,33.54691927494855],[128.69005597536454,33.47315598376781],[128.6472256772596,33.46839706175615],[128.6472256772596,33.41128999761622],[128.61153376217214,33.41604891962788],[128.6091543011663,33.344665089452974],[128.5758418470847,33.351803472470465],[128.57108292507303,33.29707586933637],[128.53539100998557,33.33038832341799],[128.54014993199723,33.23996880519644],[128.4901812508748,33.23520988318478],[128.49434530763517,33.17572335803902],[128.45329960528443,33.17393876228465],[128.46400717981066,33.12753927267096],[128.44645111761395,33.12753927267096]]]]},"properties":{"Id":0}},
{"type":"Feature","geometry":{"type":"MultiPolygon","coordinates":[[[[139.24973820257787,35.21302691475722],[139.26383340924315,34.61398063147635],[139.42801621864544,34.59256548242388],[139.51367681485533,34.62111901449384],[140.04191715814966,34.59970386544137],[140.0990242222896,34.66394931259879],[140.11330098832457,34.98517654838588],[140.0847474562546,34.97803816536839],[139.97053332797475,34.85668565407104],[139.79921213555497,34.82813212200108],[139.72782830538006,34.870962420106025],[139.72068992236257,34.96376139933341],[139.7777969865025,35.035145229508316],[139.7635202204675,35.106529059683226],[139.6921363902926,35.099390676665735],[139.63502932615268,35.07083714459577],[139.57792226201275,35.07797552761326],[139.51367681485533,35.19218965589312],[139.24973820257787,35.21302691475722]]],[[[139.24973820257787,35.21302691475722],[139.24955664320817,35.22074318796308],[139.24241826019068,35.21360480494559],[139.24973820257787,35.21302691475722]]]]},"properties":{"Id":0}},
{"type":"Feature","geometry":{"type":"Polygon","coordinates":[[[140.1056867131059,34.97803816536839],[140.1199634791409,34.68774392265709],[141.50480978453413,34.69726176668041],[141.51432762855745,35.43965360049964],[140.51495400610872,35.45393036653462],[140.4578469419688,35.35875192630141],[140.46260586398046,35.173153967846645],[140.44357017593381,35.12556474772987],[140.42453448788717,35.092252293648244],[140.39122203380555,35.06369876157828],[140.17707054328082,35.05418091755496],[140.18182946529248,35.00659169743835],[140.11044563511757,34.98279708738005],[140.1056867131059,34.97803816536839]]]},"properties":{"Id":0}},
{"type":"Feature","geometry":{"type":"Polygon","coordinates":[[[138.30919365370403,35.10319781427512],[138.30919365370403,35.08416212622848],[138.3472650297973,34.12285987987303],[139.27049590005947,34.09430634780307],[139.2419423679895,35.303072538764866],[138.30919365370403,35.10319781427512]]]},"properties":{"Id":0}},
{"type":"Feature","geometry":{"type":"Polygon","coordinates":[[[136.98621333446215,34.49405579678256],[136.97669549043883,34.02768143963982],[138.32822934175067,34.0181635956165],[138.31871149772735,34.513091484829204],[138.1569081493309,34.532127172875846],[138.0331761770277,34.58923423701577],[137.38596278344187,34.608269925062416],[136.98621333446215,34.50357364080588],[136.98621333446215,34.49405579678256]]]},"properties":{"Id":0}},
{"type":"Feature","geometry":{"type":"Polygon","coordinates":[[[140.70015538772918,36.63477754836123],[140.71205269275833,36.46821527795311],[140.6704121251563,36.28380705000126],[140.63472021006885,36.19457726228262],[140.63472021006885,36.11129612707856],[140.97974205591424,35.71868506111656],[140.97974205591424,35.641352578427075],[140.7715392179041,35.62350662088335],[140.70015538772918,35.57591740076674],[140.45626063463158,35.46884165550438],[141.30096929170134,35.486687613048105],[141.3128665967305,36.62882889584665],[140.68825808270003,36.640726200875804],[140.70015538772918,36.63477754836123]]]},"properties":{"Id":0}},
{"type":"Feature","geometry":{"type":"Polygon","coordinates":[[[140.6704121251563,37.747175568587124],[140.6704121251563,36.640726200875804],[141.64599113754673,36.63477754836123],[141.63409383251758,37.72338095852882],[140.6704121251563,37.7531242211017],[140.6704121251563,37.747175568587124]]]},"properties":{"Id":0}},
{"type":"Feature","geometry":{"type":"Polygon","coordinates":[[[141.0389906349593,37.74146486217302],[142.13116323663553,37.74146486217302],[142.14900919417926,38.451733972413365],[141.62433804239367,38.4624415469396],[141.5957845103237,38.419611248834656],[141.59221531881485,38.308966312063546],[141.62076885088482,38.287551163011074],[141.58150774428873,38.25185924792362],[141.58507693579736,38.21973652434491],[141.45658604148252,38.20189056680118],[141.36378706225514,38.29112035451982],[141.2174502103967,38.301827929046055],[140.9997295283631,38.105522396065055],[140.95689923025816,37.994877459293946],[140.94976084724067,37.89137090554033],[140.9997295283631,37.8342638414004],[141.03542144345056,37.73432647915553],[141.0389906349593,37.74146486217302]]]},"properties":{"Id":0}},
{"type":"Feature","geometry":{"type":"Polygon","coordinates":[[[142.0811945555131,39.65098231935184],[142.08476374702184,39.38329295619593],[142.04550264042564,39.379723764687185],[141.92058093761955,39.02994299683013],[141.64575319144615,38.719423335569275],[141.61363046786732,38.71585414406053],[141.6100612763587,38.45530316392211],[142.348883918669,38.451733972413365],[142.3560223016865,39.654551510860585],[142.0740561724956,39.661689893878076],[142.0811945555131,39.65098231935184]]]},"properties":{"Id":0}},
{"type":"Feature","geometry":{"type":"Polygon","coordinates":[[[141.45004252371666,40.82326344155774],[141.4928728218216,40.82326344155774],[141.48930363031263,40.67335739819043],[141.53213392841758,40.60554275952427],[141.72487026988983,40.505605397279396],[141.72130107838132,40.43065237559574],[141.80339248308223,40.387822077490796],[141.87120712174863,40.29145390675467],[141.8854838877836,40.23791603412349],[141.92474499437958,40.230777651105996],[141.92474499437958,40.04874888415981],[142.0425283141684,39.948811521914934],[142.0425283141684,39.838166585143824],[142.09249699529084,39.84173577665257],[142.07108184623837,39.6632762012153],[142.30307929430683,39.65970700970655],[142.30664848581557,40.82683263306649],[141.46788848126016,40.82683263306649],[141.45004252371666,40.82326344155774]]]},"properties":{"Id":0}},
{"type":"Feature","geometry":{"type":"MultiPolygon","coordinates":[[[[141.01726533630358,42.008572293580585],[141.0827330597831,42.0043485694851],[141.23025964214457,41.871098753158606],[141.24453640817956,41.74736678085543],[141.12080443587638,41.64742941861056],[141.12556335788804,41.547492056365684],[141.4444111326693,41.52845636831904],[141.4824825087626,41.181055061467816],[141.43489328864598,41.18581398347948],[141.44917005468096,40.83365375461659],[141.79181243952053,40.83841267662825],[141.77753567348554,42.0043485694851],[141.01726533630358,42.008572293580585]]],[[[141.01726533630358,42.008572293580585],[140.93520647742162,42.013866413508424],[140.92092971138663,42.00910749149676],[141.01726533630358,42.008572293580585]]]]},"properties":{"Id":0}},
{"type":"Feature","geometry":{"type":"Polygon","coordinates":[[[140.5021445743605,42.53258891277943],[140.48786780832552,42.53258891277943],[140.37365368004566,42.418374784499576],[140.36413583602234,42.28512496817308],[140.40220721211563,42.23277682604481],[140.55449271648877,42.185187605928206],[140.74009067494353,42.18994652793987],[140.90665294535165,42.023384257531745],[141.78705351750887,42.013866413508424],[141.76801782946222,42.556383522837734],[141.5395895729025,42.561142444849395],[141.52531280686753,42.51831214674445],[141.34447377042443,42.489758614674486],[141.27308994024952,42.35650879834799],[140.83051019316508,42.38506233041795],[140.61635870264035,42.54210675680275],[140.5021445743605,42.53258891277943]]]},"properties":{"Id":0}},
{"type":"Feature","geometry":{"type":"Polygon","coordinates":[[[141.80133028354385,42.52782999076777],[141.77753567348554,42.54686567881441],[141.8298838156138,41.58080451044731],[142.7626325298993,41.57128666642399],[142.74359684185265,42.11856269776496],[141.80133028354385,42.52782999076777]]]},"properties":{"Id":0}},
{"type":"Feature","geometry":{"type":"Polygon","coordinates":[[[142.77976464914127,42.10198578609106],[142.7738159966267,42.10793443860564],[142.7738159966267,41.57255571229382],[143.75534366153192,41.55470975475009],[143.70775444141532,42.577877987257125],[143.44601373077398,42.310188624101215],[143.44601373077398,42.09603713357649],[143.38652720562823,41.929474863168366],[143.05935131732656,41.94137216819752],[142.77976464914127,42.10198578609106]]]},"properties":{"Id":0}},
{"type":"Feature","geometry":{"type":"Polygon","coordinates":[[[143.73154905147362,42.63320045564268],[143.77437934957857,41.826563174666205],[144.73092267392235,41.84083994070119],[144.7594762059923,42.8544903291849],[144.231235862698,42.86162871220239],[143.71013390242115,42.62606207262519],[143.73154905147362,42.63320045564268]]]},"properties":{"Id":0}},
{"type":"Feature","geometry":{"type":"Polygon","coordinates":[[[144.7666145890098,42.87590547823737],[144.7737529720273,42.61178530659021],[146.2585366396654,42.61178530659021],[146.27995178871788,43.368453906444245],[146.1157689793156,43.3256236083393],[145.93730940387832,43.31134684230432],[145.60180540205624,43.0900569687621],[145.3234084643741,43.10433373479708],[144.7737529720273,42.86876709521988],[144.7666145890098,42.87590547823737]]]},"properties":{"Id":0}},
{"type":"Feature","geometry":{"type":"MultiPolygon","coordinates":[[[[143.90054811929735,44.983314775734584],[143.9100086269109,44.19809264381041],[144.07181197530736,44.19333372179875],[144.07181197530736,44.13146773564716],[144.28596346583208,44.140985579670485],[144.47156142428685,43.983941153285684],[144.7904091990681,43.96014654322738],[144.9379357814296,44.08863743754222],[144.92841793740627,44.983314775734584],[143.90054811929735,44.983314775734584]]],[[[143.90054811929735,44.983314775734584],[143.90049078288757,44.988073697746245],[143.89097293886425,44.983314775734584],[143.90054811929735,44.983314775734584]]]]},"properties":{"Id":0}},
{"type":"Feature","geometry":{"type":"MultiPolygon","coordinates":[[[[142.71383538040027,44.89730040690921],[143.00105452268372,44.64543131290651],[143.291348765395,44.46459227646341],[143.5959197741413,44.31230677209027],[143.87669617282927,44.20761048783373],[143.88145509484093,44.87861849147788],[142.71383538040027,44.89730040690921]]],[[[142.71383538040027,44.89730040690921],[142.69172459192578,44.916689867571336],[142.69172459192578,44.89765417952469],[142.71383538040027,44.89730040690921]]]]},"properties":{"Id":0}},
{"type":"Feature","geometry":{"type":"Polygon","coordinates":[[[142.17776101466643,45.64004601334375],[142.1920377807014,45.383064224714076],[142.67268890387913,44.921448789582996],[143.8862140168526,44.916689867571336],[143.8957318608759,45.19270734424765],[143.40556289367487,45.33547500459747],[142.97250099061375,45.55914433914552],[142.91063500446216,45.601974637250464],[142.1920377807014,45.64004601334375],[142.17776101466643,45.64004601334375]]]},"properties":{"Id":0}},
{"type":"Feature","geometry":{"type":"Polygon","coordinates":[[[140.6640272381237,45.68247973461439],[140.6783040041587,45.187551845401515],[141.51587427821096,45.192310767413176],[141.50159751217598,45.28748920764639],[141.5587045763159,45.35411411580964],[141.55394565430424,45.44929255604285],[141.63484732850247,45.51115854219461],[141.7300257687357,45.54447099627623],[141.95369510328374,45.58254237236952],[142.15832874978514,45.37314980385628],[142.16784659380846,45.67772081260273],[140.66878616013537,45.69199757863771],[140.6640272381237,45.68247973461439]]]},"properties":{"Id":0}},
{"type":"Feature","geometry":{"type":"Polygon","coordinates":[[[140.89245549468342,45.178034001378194],[140.90197333870674,44.021615952544664],[141.56822242033923,44.026374874556325],[141.57774026436255,44.30239235123264],[141.70147223666572,44.568891983885635],[141.7157490027007,44.797320240445345],[141.52063320022262,45.182792923389854],[140.8829376506601,45.178034001378194],[140.89245549468342,45.178034001378194]]]},"properties":{"Id":0}},
{"type":"Feature","geometry":{"type":"Polygon","coordinates":[[[140.5200698472711,44.00416657183524],[140.53791580481482,43.42714727792139],[140.84724573557276,43.24868770248412],[141.04949992106833,43.23679039745497],[141.32313793673882,43.26058500751327],[141.36477850434085,43.45689054049427],[141.2755487166222,43.55206898072748],[141.26960006410764,43.77811777628136],[141.55513538480727,43.99226926680609],[140.50817254224194,44.01011522434982],[140.5200698472711,44.00416657183524]]]},"properties":{"Id":0}},
{"type":"Feature","geometry":{"type":"Polygon","coordinates":[[[139.46715835219106,44.01011522434982],[139.47905565722021,42.85607663652212],[140.21073991651315,42.873922594065846],[140.34161027183382,42.96910103429906],[140.31186700926094,43.12376599967803],[140.25832913662975,43.21894443991124],[140.25832913662975,43.34981479523191],[140.31186700926094,43.40335266786309],[140.50817254224194,43.42714727792139],[140.50817254224194,43.99226926680609],[139.44336374213276,44.027961181893545],[139.46715835219106,44.01011522434982]]]},"properties":{"Id":0}},
{"type":"Feature","geometry":{"type":"Polygon","coordinates":[[[138.72952544038367,42.84417933149297],[138.7235767878692,42.070854504597946],[140.01443438353215,42.03516258951049],[139.7526936728908,42.16008429231658],[139.68725849523048,42.30880060518098],[139.71700175780336,42.42182500295792],[139.7586423254054,42.451568265530796],[139.77648828294912,42.54674670576401],[139.7348477153471,42.60028457839519],[139.7824369354637,42.68356571359942],[139.806231545522,42.75494954377433],[140.0263316885613,42.74305223874518],[140.07986956119248,42.832282026463815],[138.7473713979275,42.82633337394924],[138.72952544038367,42.84417933149297]]]},"properties":{"Id":0}},
{"type":"Feature","geometry":{"type":"Polygon","coordinates":[[[138.81875522810242,42.029213936995916],[138.83660118564603,41.368913507878005],[140.05607495113418,41.35106755033428],[139.9014099857552,41.452194643082066],[139.90735863826978,41.7139353537234],[140.002537078503,41.80316514144204],[140.0739209086779,41.904292234189825],[140.03822899359045,42.04111124202507],[138.84254983816072,42.04111124202507],[138.81875522810242,42.029213936995916]]]},"properties":{"Id":0}},
{"type":"Feature","geometry":{"type":"Polygon","coordinates":[[[139.5087989197932,41.35106755033428],[139.52069622482236,40.161337047419124],[139.90735863826978,40.161337047419124],[139.9787424684447,40.22677222507946],[139.98469112095927,40.30410470776894],[139.91330729078436,40.369539885429276],[139.84192346060945,40.37548853794385],[139.83597480809487,40.51825619829367],[139.76459097791997,40.61938329104146],[139.94899920587181,40.76809960390585],[140.0977155187362,40.78594556144958],[140.198842611484,40.85138073910991],[140.24048317908603,40.92276456928482],[140.28212374668806,41.047686272090914],[140.18099665394027,41.1250187547804],[140.20479126399857,41.19640258495531],[140.28212374668806,41.18450527992616],[140.3237643142901,41.285632372673945],[140.40109679697957,41.255889110101066],[140.4903265846982,41.243991805071914],[140.4903265846982,41.35106755033428],[139.5087989197932,41.35106755033428]]]},"properties":{"Id":0}},
{"type":"Feature","geometry":{"type":"Polygon","coordinates":[[[139.10678898285823,40.146762848758385],[139.11392736587572,38.976068033889874],[139.7563818374499,38.990344799924856],[139.77779698650238,39.08671297066098],[139.8420424336598,39.179511949888365],[139.85631919969478,39.250895780063274],[139.90985707232596,39.32584880174693],[139.97053332797464,39.4257861639918],[139.95625656193965,39.50787756869295],[140.01336362607958,39.50787756869295],[140.00979443457084,39.74701339977889],[139.8884419232735,39.825535612971294],[139.7171207308537,39.825535612971294],[139.59576821955636,39.98614923086484],[139.64216770917005,40.028979528969785],[139.73496668839744,40.01827195444355],[139.84561162516854,40.00042599689982],[139.93484141288718,40.146762848758385],[139.10678898285823,40.146762848758385]]]},"properties":{"Id":0}},
{"type":"Feature","geometry":{"type":"MultiPolygon","coordinates":[[[[138.97938525607196,38.97249884238113],[138.96164186150259,37.94338195735952],[139.1757933520273,37.9969198299907],[139.36020157997916,38.133738837825945],[139.4256367576395,38.5382472088171],[139.7171207308537,38.81783387700216],[139.7944532135432,38.97249884238113],[138.97938525607196,38.97249884238113]]],[[[138.97938525607196,38.97249884238113],[138.9794878190463,38.978447494895704],[138.96759051401716,38.97249884238113],[138.97938525607196,38.97249884238113]]]]},"properties":{"Id":0}},
{"type":"Feature","geometry":{"type":"Polygon","coordinates":[[[137.89683306139352,38.978447494895704],[137.9027817139081,37.83035755958258],[138.80102824360904,37.8006142970097],[138.7891309385799,37.866049474670035],[138.92594994641513,37.94338195735952],[138.9318985989297,38.98439614741028],[137.88493575636437,38.98439614741028],[137.89683306139352,38.978447494895704]]]},"properties":{"Id":0}},
{"type":"Feature","geometry":{"type":"Polygon","coordinates":[[[137.9111098274285,37.8160807935476],[137.92895578497223,36.7952920220464],[137.97892446609467,36.773876872993924],[138.26802897830305,36.773876872993924],[138.45005774524907,36.9523364484312],[138.60353298012512,36.95947483144869],[138.8533763857373,37.29497883327076],[138.83909961970232,37.79109645298638],[137.92181740195474,37.8160807935476],[137.9111098274285,37.8160807935476]]]},"properties":{"Id":0}},
{"type":"Feature","geometry":{"type":"Polygon","coordinates":[[[136.90911879787325,37.819649985056344],[136.9043598758616,37.448454068146816],[137.29935040282942,37.53411466435671],[137.375493155016,37.4865254442401],[137.35169854495769,37.39610592601855],[137.2898325588061,37.34375778389028],[137.16134166449126,37.281891797738695],[137.094716756328,37.210507967563785],[137.0709221462697,36.88690127077086],[137.0851989123047,36.820276362607615],[137.361216388981,36.78220498651433],[137.38025207702765,36.92497264686415],[137.9242002445311,37.06730893527987],[137.91325134233364,37.824408907068005],[136.92339556390823,37.824408907068005],[136.90911879787325,37.819649985056344]]]},"properties":{"Id":0}},
{"type":"Feature","geometry":{"type":"MultiPolygon","coordinates":[[[[135.89070948737788,37.83372182143535],[135.89070948737788,36.65371409219949],[136.53792288096372,36.62991948214119],[136.6616548532669,36.739374688409384],[136.67593161930188,36.84407097266592],[136.68069054131354,36.977320788992415],[136.59502994510365,37.06774030721397],[136.59502994510365,37.33423993986696],[136.87580634379162,37.45321299015848],[136.87104742177996,37.819649985056344],[135.89070948737788,37.83372182143535]]],[[[135.89070948737788,37.83372182143535],[135.89070948737788,37.833926751091326],[135.8764327213429,37.833926751091326],[135.89070948737788,37.83372182143535]]]]},"properties":{"Id":0}},
{"type":"Feature","geometry":{"type":"Polygon","coordinates":[[[135.62896877673654,36.63467840415285],[135.62420985472488,35.587715561587515],[136.03823606973936,35.811384896135564],[135.9240219414595,36.00650069861365],[135.93829870749448,36.130232670916826],[136.58551210108033,36.62991948214119],[135.62896877673654,36.63467840415285]]]},"properties":{"Id":0}},
{"type":"Feature","geometry":{"type":"Polygon","coordinates":[[[134.61055946624117,36.65371409219949],[134.61531838825283,35.69717076785571],[134.9103715529758,35.69717076785571],[135.21494256172207,35.79234920808892],[135.36246914408355,35.735242143948994],[135.3577102220719,35.59723340561084],[135.56710279058495,35.587715561587515],[135.59565632265492,35.592474483599176],[135.59565632265492,36.65371409219949],[134.61055946624117,36.65371409219949]]]},"properties":{"Id":0}},
{"type":"Feature","geometry":{"type":"Polygon","coordinates":[[[133.5683555456875,36.57757134001292],[133.57787338971082,35.55440310750589],[133.96334607265533,35.53536741945925],[134.57724701215955,35.68289400182073],[134.57248809014789,36.57757134001292],[133.5683555456875,36.57757134001292]]]},"properties":{"Id":0}},
{"type":"Feature","geometry":{"type":"Polygon","coordinates":[[[132.55946407921545,36.57281241800126],[132.5880176112854,35.468742511296],[133.0115616703232,35.62102801566914],[133.2304720828596,35.64482262572744],[133.36848082119775,35.6019923276225],[133.37799866522107,35.54012634147091],[133.53504309160587,35.53536741945925],[133.55883770166417,35.54488526348257],[133.5683555456875,36.587089184036245],[132.55470515720378,36.57757134001292],[132.55946407921545,36.57281241800126]]]},"properties":{"Id":0}},
{"type":"Feature","geometry":{"type":"Polygon","coordinates":[[[131.61350935634755,36.142665354672204],[131.6254066613767,35.00528299388532],[132.09178101851944,34.993385688856165],[132.57719106370882,35.302715619614105],[132.5676732196855,36.145044815678034],[131.61112989534172,36.149803737689695],[131.61350935634755,36.142665354672204]]]},"properties":{"Id":0}},
{"type":"Feature","geometry":{"type":"Polygon","coordinates":[[[130.88063536655181,34.986247305838674],[130.8949121325868,34.443730196509364],[131.22684694290012,34.450868579526855],[131.57662771075718,34.70071198513904],[131.75508728619445,34.69714279363029],[132.04776098991158,34.986247305838674],[130.8877737495693,34.993385688856165],[130.88063536655181,34.986247305838674]]]},"properties":{"Id":0}},
{"type":"Feature","geometry":{"type":"MultiPolygon","coordinates":[[[[129.95999181467187,34.99334354433154],[129.99904506389169,33.64423129855038],[130.12039757518903,33.65136968156787],[130.30242634213505,33.77629138437396],[130.30242634213505,33.89764389567131],[130.3381182572225,33.940474193776254],[130.47731672606358,33.93690500226751],[130.48445510908107,33.89407470416256],[130.58439247132594,33.88693632114507],[130.5808232798172,34.00115044942493],[130.7771288127982,34.00828883244242],[130.7771288127982,34.151056492792236],[130.81282072788565,34.14748730128349],[130.81995911090314,34.24742466352836],[130.75571366374572,34.2581322380546],[130.75928285525447,34.372346366334455],[130.8877737495693,34.443730196509364],[130.87349698353432,34.98981649734742],[129.95999181467187,34.99334354433154]]],[[[129.95999181467187,34.99334354433154],[129.95978395729549,35.000524071873656],[129.94907638276925,34.993385688856165],[129.95999181467187,34.99334354433154]]]]},"properties":{"Id":0}},
{"type":"Feature","geometry":{"type":"Polygon","coordinates":[[[136.06512397910535,33.747737852304],[136.06512397910535,33.444356574060635],[136.96931916132087,33.444356574060635],[136.97526781383544,34.20578409592633],[136.5707594428443,34.21173274844091],[136.30307007968838,34.05111913054736],[136.31496738471753,33.908351470197545],[136.0770212841345,33.747737852304],[136.06512397910535,33.747737852304]]]},"properties":{"Id":0}},
{"type":"Feature","geometry":{"type":"Polygon","coordinates":[[[134.73857446835495,33.87265955511009],[134.7504717733841,33.12907799078812],[136.06512397910535,33.11123203324439],[136.0532266740762,33.569278276866726],[135.8569211410952,33.39081870142945],[135.6368209980559,33.36702409137115],[135.22636397455017,33.58117558189588],[135.172826101919,33.72989189476027],[134.98246922145256,33.86076225008094],[134.74452312086953,33.866710902595514],[134.73857446835495,33.87265955511009]]]},"properties":{"Id":0}},
{"type":"Feature","geometry":{"type":"Polygon","coordinates":[[[133.81474873284128,33.437218191043144],[133.82902549887626,32.70910312325907],[134.73322068109178,32.71386204527073],[134.71418499304514,33.756065965824405],[134.41913182832218,33.522878787253035],[134.25732847992572,33.27541484264668],[134.2097392598091,33.12312933827354],[134.0669715994593,33.218307778506755],[133.81950765485294,33.441977113054804],[133.81474873284128,33.437218191043144]]]},"properties":{"Id":0}},
{"type":"Feature","geometry":{"type":"Polygon","coordinates":[[[132.8201340324042,32.64057464629121],[132.83916972045085,32.39311070168486],[133.80523088881796,32.37883393564988],[133.80998981082962,33.421037856203554],[133.61011508633987,33.435314622238536],[133.39596359581515,33.32585941597034],[133.11518719712717,32.964181343084135],[133.03428552292894,32.89755643492089],[133.04380336695226,32.76906554060605],[133.06759797701056,32.71195847646612],[133.02476767890562,32.62629788025623],[132.82489295441587,32.645333568302874],[132.8201340324042,32.64057464629121]]]},"properties":{"Id":0}},
{"type":"Feature","geometry":{"type":"Polygon","coordinates":[[[131.8378132138306,32.66563830221912],[131.73311692957407,32.532388485892625],[131.73787585158573,32.42769220163609],[131.6331795673292,32.28968346329793],[132.83718683627933,32.294442385309594],[132.827668992256,32.679915068254104],[132.58972289167298,32.70370967831241],[132.3946070891949,32.87503087073219],[132.3946070891949,33.02731637510533],[132.01389332826204,33.02731637510533],[132.02817009429702,32.9464147009071],[131.83305429181894,32.66087938020746],[131.8378132138306,32.66563830221912]]]},"properties":{"Id":0}},
{"type":"Feature","geometry":{"type":"MultiPolygon","coordinates":[[[[131.61759366353283,32.27089744497374],[131.6189028012942,32.27540669726295],[131.59986711324757,32.27064777525129],[131.61759366353283,32.27089744497374]]],[[[131.61759366353283,32.27089744497374],[131.49041190697938,31.832826950178514],[131.51896543904934,31.751925275980284],[131.50468867301436,31.671023601782053],[131.4761351409444,31.57108623953718],[131.40475131076948,31.34265798297747],[131.15728736616313,31.314104450907507],[131.0287964718483,31.138024336476064],[131.93775057607547,31.118988648429422],[131.93775057607547,32.27540669726295],[131.61759366353283,32.27089744497374]]]]},"properties":{"Id":0}},
{"type":"Feature","geometry":{"type":"MultiPolygon","coordinates":[[[[130.6267112378015,31.13073045472686],[130.63380594488035,29.94591437255508],[131.58321088620676,29.960191138590062],[131.59034926922425,31.123747570441083],[130.6267112378015,31.13073045472686]]],[[[130.6267112378015,31.13073045472686],[130.62666756186286,31.138024336476064],[130.6052524128104,31.130885953458574],[130.6267112378015,31.13073045472686]]]]},"properties":{"Id":0}},
{"type":"Feature","geometry":{"type":"Polygon","coordinates":[[[129.62015555639664,31.56632731752552],[129.60587879036166,30.702582972409118],[130.64094432789784,30.702582972409118],[130.63380594488035,31.830447489172684],[130.05559692046359,31.837585872190175],[130.07701206951606,31.659126296752902],[130.21977972986588,31.57346570054301],[129.59874040734417,31.56632731752552],[129.62015555639664,31.56632731752552]]]},"properties":{"Id":0}},
{"type":"Feature","geometry":{"type":"Polygon","coordinates":[[[139.72763001696296,34.134241635017645],[139.77521923707957,32.95640843713164],[140.34628987847884,32.980203047189946],[140.37008448853715,33.57506829864752],[140.76269555449915,33.57506829864752],[140.7745928595283,34.1461389400468],[139.70383540690466,34.1461389400468],[139.72763001696296,34.134241635017645]]]},"properties":{"Id":0}},
{"type":"Feature","geometry":{"type":"MultiPolygon","coordinates":[[[[139.3112185306478,31.456424166574607],[139.2993270359135,29.565676503823454],[140.5009548438578,29.60136841891091],[140.51285214888696,31.409758783341942],[139.3112185306478,31.456424166574607]]],[[[139.3112185306478,31.456424166574607],[139.31122434094266,31.45734800345855],[139.28742973088436,31.45734800345855],[139.3112185306478,31.456424166574607]]]]},"properties":{"Id":0}},
{"type":"Feature","geometry":{"type":"Polygon","coordinates":[[[127.46864691492522,26.973253737971163],[126.39313054028992,26.992289426017805],[126.42168407235988,26.96373589394784],[126.41216622833656,25.497987914356372],[127.47816475894854,25.507505758379693],[127.46864691492522,26.973253737971163]]]},"properties":{"Id":0}},
{"type":"Feature","geometry":{"type":"MultiPolygon","coordinates":[[[[127.46864691492522,26.973253737971163],[127.44961122687857,26.96373589394784],[127.46848200436978,26.96385383630718],[127.46864691492522,26.973253737971163]]],[[[127.46848200436978,26.96385383630718],[127.4591290709019,26.430736628641853],[129.00101980267993,26.440254472665174],[128.97246627060997,26.973253737971163],[127.46848200436978,26.96385383630718]]]]},"properties":{"Id":0}},
{"type":"Feature","geometry":{"type":"Polygon","coordinates":[[[127.47216923060398,26.4308171234548],[127.46864691492522,25.517023602403015],[128.4870562254206,25.46943438228641],[128.4870562254206,26.41170094059521],[127.47216923060398,26.4308171234548]]]},"properties":{"Id":0}},
{"type":"Feature","geometry":{"type":"MultiPolygon","coordinates":[[[[124.75288679197081,25.177457712213766],[124.73385306555735,24.24480511795241],[125.65708393581951,24.263840805999052],[125.68563746788948,25.16803598821457],[124.75288679197081,25.177457712213766]]],[[[124.75288679197081,25.177457712213766],[124.752888753604,25.17755383223789],[124.74337090958068,25.17755383223789],[124.75288679197081,25.177457712213766]]]]},"properties":{"Id":0}}
]}