{"type":"FeatureCollection", "features": [
{"type":"Feature","geometry":{"type":"Point","coordinates":[7.361629750868352,78.52505018770805]},"properties":{"Id":0,"country":"欧洲","name":"北冰洋观测网","DanWei":"","length":0}},
{"type":"Feature","geometry":{"type":"Point","coordinates":[9.074841675066155,66.34220983785701]},"properties":{"Id":0,"country":"欧洲","name":"挪威大陆边缘观测网","DanWei":"","length":0}},
{"type":"Feature","geometry":{"type":"Point","coordinates":[-7.5233612060546875,62.0943603515625]},"properties":{"Id":0,"country":"欧洲","name":"北海观测网","DanWei":"","length":0}},
{"type":"Feature","geometry":{"type":"Point","coordinates":[-12.24512893717316,50.54258875914395]},"properties":{"Id":0,"country":"欧洲","name":"东北大西洋波克潘(Porcupine)观测网","DanWei":"","length":0}},
{"type":"Feature","geometry":{"type":"Point","coordinates":[-48.79364998672626,38.692872950109134]},"properties":{"Id":0,"country":"欧洲","name":"大西洋洋中脊亚速尔(Azores)观测网","DanWei":"","length":0}},
{"type":"Feature","geometry":{"type":"Point","coordinates":[-10.722273893441779,34.885735340780684]},"properties":{"Id":0,"country":"欧洲","name":"伊比利亚大陆边缘观测网","DanWei":"","length":0}},
{"type":"Feature","geometry":{"type":"Point","coordinates":[6.209194660186768,42.99158477783203]},"properties":{"Id":0,"country":"欧洲","name":"利古里亚海观测网","DanWei":"","length":0}},
{"type":"Feature","geometry":{"type":"Point","coordinates":[10.880861282348633,37.11336135864258]},"properties":{"Id":0,"country":"欧洲","name":"西西里岛东部海底观测网","DanWei":"","length":0}},
{"type":"Feature","geometry":{"type":"Point","coordinates":[19.02098867943672,34.885735340780684]},"properties":{"Id":0,"country":"欧洲","name":"地中海希腊 Hellenic观测网","DanWei":"","length":0}},
{"type":"Feature","geometry":{"type":"Point","coordinates":[16.26530647277832,44.17150115966796]},"properties":{"Id":0,"country":"欧洲","name":"黑海观测网","DanWei":"","length":0}},
{"type":"Feature","geometry":{"type":"Point","coordinates":[-75.44361325202539,37.741088547777025]},"properties":{"Id":0,"country":"美国","name":"长期生态系统观测系统(LEO-15)","DanWei":"罗格斯大学","length":0}},
{"type":"Feature","geometry":{"type":"Point","coordinates":[-164.53479186665862,19.413775609450333]},"properties":{"Id":0,"country":"美国","name":"夏威夷海底火山观测网(HUGO)","DanWei":"夏威夷大学","length":0}},
{"type":"Feature","geometry":{"type":"Point","coordinates":[-151.68570243517513,31.311080638601734]},"properties":{"Id":0,"country":"美国","name":"夏威夷-2 观测网(H2O)","DanWei":"伍兹霍尔海洋研究所","length":0}},
{"type":"Feature","geometry":{"type":"Point","coordinates":[-74.25407553711479,39.06614063343684]},"properties":{"Id":0,"country":"美国","name":"马萨葡萄园岛海岸带观测网(MVCO)","DanWei":"伍兹霍尔海洋研究所","length":0}},
{"type":"Feature","geometry":{"type":"Point","coordinates":[-124.78192999592083,41.20765553868409]},"properties":{"Id":0,"country":"美国","name":"蒙特利湾海底长期三分量海底地震台站(MOBB)","DanWei":"蒙特利湾水生研究所","length":0}},
{"type":"Feature","geometry":{"type":"Point","coordinates":[56.0887794494629,26.076416015625007]},"properties":{"Id":0,"country":"美国","name":"灯塔海洋研究计划Ⅰ期(LORI-Ⅰ)","DanWei":"灯塔研发企业","length":0}},
{"type":"Feature","geometry":{"type":"Point","coordinates":[-125.56715212784485,42.0166722806664]},"properties":{"Id":0,"country":"美国","name":"火星观测网(MARS)","DanWei":"蒙特利湾水生研究所","length":0}},
{"type":"Feature","geometry":{"type":"Point","coordinates":[-123.90152942376366,39.39926517425309]},"properties":{"Id":0,"country":"美国","name":"海洋观测计划区域尺度节点观测网(OOI-RSN)","DanWei":"华盛顿大学","length":0}},
{"type":"Feature","geometry":{"type":"Point","coordinates":[59.049278662012036,24.071570528363026]},"properties":{"Id":0,"country":"美国","name":"灯塔海洋研究计划Ⅱ期(LORI-Ⅱ)","DanWei":"灯塔研发企业","length":0}},
{"type":"Feature","geometry":{"type":"Point","coordinates":[-167.92750668413836,25.665809402269307]},"properties":{"Id":0,"country":"美国","name":"阿罗哈观测网(ACO)","DanWei":"夏威夷大学","length":0}},
{"type":"Feature","geometry":{"type":"Point","coordinates":[-125.51242452471072,43.867496366368066]},"properties":{"Id":0,"country":"加拿大","name":"海王星海底观测网(NEPTUNE)","DanWei":"","length":0}},
{"type":"Feature","geometry":{"type":"Point","coordinates":[-123.48988266975499,44.93825381899169]},"properties":{"Id":0,"country":"加拿大","name":"金星海底观测网(VENUS)","DanWei":"","length":0}},
{"type":"Feature","geometry":{"type":"Point","coordinates":[140.32421356542895,38.071154751093246]},"properties":{"Id":0,"country":"日本","name":"密集海底地震和海啸网络系统(DONET)","DanWei":"","length":0}},
{"type":"Feature","geometry":{"type":"Point","coordinates":[140.7525165464784,39.78436667529105]},"properties":{"Id":0,"country":"日本","name":"日本其他观测网","DanWei":"","length":0}},
{"type":"Feature","geometry":{"type":"Point","coordinates":[122.33548836135203,29.93339811115369]},"properties":{"Id":0,"country":"中国","name":"小衢山海底观测站(XQ)","DanWei":"","length":0}},
{"type":"Feature","geometry":{"type":"Point","coordinates":[121.90718538030258,25.36483297995955]},"properties":{"Id":0,"country":"中国","name":"中国台湾妈祖海底观测网(MACHO)","DanWei":"","length":0}}
]}